{"type": "FeatureCollection", "features": [ {"type": "Feature", "properties": {"norad_id": 28659, "name": "DIRECTV 8", "group": "intelsat", "lat": -0.012949834148830056, "lon": 9.381041525883427, "alt_km": 35784.66786562378, "timestamp": "2025-12-27T02:10:15.855498+00:00", "meta": {"OBJECT_NAME": "DIRECTV 8", "OBJECT_ID": "2005-019A", "EPOCH": "2025-12-26T09:14:16.477152", "MEAN_MOTION": 1.00271765, "ECCENTRICITY": 0.0003134, "INCLINATION": 0.0135, "RA_OF_ASC_NODE": 57.3028, "ARG_OF_PERICENTER": 228.1398, "MEAN_ANOMALY": 189.2168, "EPHEMERIS_TYPE": 0, "CLASSIFICATION_TYPE": "U", "NORAD_CAT_ID": 28659, "ELEMENT_SET_NO": 999, "REV_AT_EPOCH": 7534, "BSTAR": 0, "MEAN_MOTION_DOT": 2.3e-07, "MEAN_MOTION_DDOT": 0}, "tle": {"line1": "1 28659U 05019A   25360.38491293  .00000023  00000+0  00000+0 0  9993", "line2": "2 28659   0.0135  57.3028 0003134 228.1398 189.2168  1.00271765 75343"}}, "geometry": {"type": "Point", "coordinates": [9.381041525883427, -0.012949834148830056]}}, {"type": "Feature", "properties": {"norad_id": 28702, "name": "GALAXY 28 (G-28)", "group": "intelsat", "lat": -1.545900532324323, "lon": 48.13216807295661, "alt_km": 35708.79892480235, "timestamp": "2025-12-27T02:10:15.855509+00:00", "meta": {"OBJECT_NAME": "GALAXY 28 (G-28)", "OBJECT_ID": "2005-022A", "EPOCH": "2025-12-26T11:40:12.062208", "MEAN_MOTION": 1.00599644, "ECCENTRICITY": 0.0003457, "INCLINATION": 2.855, "RA_OF_ASC_NODE": 81.1219, "ARG_OF_PERICENTER": 160.9204, "MEAN_ANOMALY": 307.2288, "EPHEMERIS_TYPE": 0, "CLASSIFICATION_TYPE": "U", "NORAD_CAT_ID": 28702, "ELEMENT_SET_NO": 999, "REV_AT_EPOCH": 5024, "BSTAR": 0, "MEAN_MOTION_DOT": -2.33e-06, "MEAN_MOTION_DDOT": 0}, "tle": {"line1": "1 28702U 05022A   25360.48625072 -.00000233  00000+0  00000+0 0  9995", "line2": "2 28702   2.8550  81.1219 0003457 160.9204 307.2288  1.00599644 50243"}}, "geometry": {"type": "Point", "coordinates": [48.13216807295661, -1.545900532324323]}}, {"type": "Feature", "properties": {"norad_id": 29236, "name": "GALAXY 16 (G-16)", "group": "intelsat", "lat": 0.0028227122730072533, "lon": 29.402470377915435, "alt_km": 35790.4002418656, "timestamp": "2025-12-27T02:10:15.855537+00:00", "meta": {"OBJECT_NAME": "GALAXY 16 (G-16)", "OBJECT_ID": "2006-023A", "EPOCH": "2025-12-26T14:16:23.522016", "MEAN_MOTION": 1.00271426, "ECCENTRICITY": 0.0002673, "INCLINATION": 0.044, "RA_OF_ASC_NODE": 195.1491, "ARG_OF_PERICENTER": 82.4387, "MEAN_ANOMALY": 292.8373, "EPHEMERIS_TYPE": 0, "CLASSIFICATION_TYPE": "U", "NORAD_CAT_ID": 29236, "ELEMENT_SET_NO": 999, "REV_AT_EPOCH": 7124, "BSTAR": 0, "MEAN_MOTION_DOT": -1.05e-06, "MEAN_MOTION_DDOT": 0}, "tle": {"line1": "1 29236U 06023A   25360.59471669 -.00000105  00000+0  00000+0 0  9991", "line2": "2 29236   0.0440 195.1491 0002673  82.4387 292.8373  1.00271426 71243"}}, "geometry": {"type": "Point", "coordinates": [29.402470377915435, 0.0028227122730072533]}}, {"type": "Feature", "properties": {"norad_id": 29494, "name": "DIRECTV 9S", "group": "intelsat", "lat": -1.629654088605492, "lon": 27.232890710617134, "alt_km": 35790.15529726717, "timestamp": "2025-12-27T02:10:15.855549+00:00", "meta": {"OBJECT_NAME": "DIRECTV 9S", "OBJECT_ID": "2006-043A", "EPOCH": "2025-12-26T11:22:08.461920", "MEAN_MOTION": 1.00271472, "ECCENTRICITY": 0.000309, "INCLINATION": 1.9736, "RA_OF_ASC_NODE": 83.0647, "ARG_OF_PERICENTER": 197.4585, "MEAN_ANOMALY": 244.0274, "EPHEMERIS_TYPE": 0, "CLASSIFICATION_TYPE": "U", "NORAD_CAT_ID": 29494, "ELEMENT_SET_NO": 999, "REV_AT_EPOCH": 4965, "BSTAR": 0, "MEAN_MOTION_DOT": -9.2e-07, "MEAN_MOTION_DDOT": 0}, "tle": {"line1": "1 29494U 06043A   25360.47370905 -.00000092  00000+0  00000+0 0  9992", "line2": "2 29494   1.9736  83.0647 0003090 197.4585 244.0274  1.00271472 49656"}}, "geometry": {"type": "Point", "coordinates": [27.232890710617134, -1.629654088605492]}}, {"type": "Feature", "properties": {"norad_id": 31307, "name": "GALAXY 17 (G-17)", "group": "intelsat", "lat": -1.5745403004779517, "lon": 43.46206707892177, "alt_km": 35806.27510628106, "timestamp": "2025-12-27T02:10:15.855561+00:00", "meta": {"OBJECT_NAME": "GALAXY 17 (G-17)", "OBJECT_ID": "2007-016B", "EPOCH": "2025-12-26T13:30:50.905152", "MEAN_MOTION": 1.00271679, "ECCENTRICITY": 0.0005635, "INCLINATION": 2.5327, "RA_OF_ASC_NODE": 82.127, "ARG_OF_PERICENTER": 174.459, "MEAN_ANOMALY": 316.4453, "EPHEMERIS_TYPE": 0, "CLASSIFICATION_TYPE": "U", "NORAD_CAT_ID": 31307, "ELEMENT_SET_NO": 999, "REV_AT_EPOCH": 6807, "BSTAR": 0, "MEAN_MOTION_DOT": -1.85e-06, "MEAN_MOTION_DDOT": 0}, "tle": {"line1": "1 31307U 07016B   25360.56308918 -.00000185  00000+0  00000+0 0  9997", "line2": "2 31307   2.5327  82.1270 0005635 174.4590 316.4453  1.00271679 68074"}}, "geometry": {"type": "Point", "coordinates": [43.46206707892177, -1.5745403004779517]}}, {"type": "Feature", "properties": {"norad_id": 31862, "name": "DIRECTV 10", "group": "intelsat", "lat": -0.0005180519892950391, "lon": 25.65917423757315, "alt_km": 35786.32329945743, "timestamp": "2025-12-27T02:10:15.855573+00:00", "meta": {"OBJECT_NAME": "DIRECTV 10", "OBJECT_ID": "2007-032A", "EPOCH": "2025-12-25T09:09:15.831072", "MEAN_MOTION": 1.00280696, "ECCENTRICITY": 7.66e-05, "INCLINATION": 0.0126, "RA_OF_ASC_NODE": 126.575, "ARG_OF_PERICENTER": 111.4706, "MEAN_ANOMALY": 250.6263, "EPHEMERIS_TYPE": 0, "CLASSIFICATION_TYPE": "U", "NORAD_CAT_ID": 31862, "ELEMENT_SET_NO": 999, "REV_AT_EPOCH": 4385, "BSTAR": 0, "MEAN_MOTION_DOT": -8.3e-07, "MEAN_MOTION_DDOT": 0}, "tle": {"line1": "1 31862U 07032A   25359.38143323 -.00000083  00000+0  00000+0 0  9993", "line2": "2 31862   0.0126 126.5750 0000766 111.4706 250.6263  1.00280696 43852"}}, "geometry": {"type": "Point", "coordinates": [25.65917423757315, -0.0005180519892950391]}}, {"type": "Feature", "properties": {"norad_id": 32253, "name": "INTELSAT 11 (IS-11)", "group": "intelsat", "lat": -1.5884238316259416, "lon": -68.95195732071812, "alt_km": 36102.453968010595, "timestamp": "2025-12-27T02:10:15.855584+00:00", "meta": {"OBJECT_NAME": "INTELSAT 11 (IS-11)", "OBJECT_ID": "2007-044B", "EPOCH": "2025-12-26T11:04:38.606880", "MEAN_MOTION": 0.99053021, "ECCENTRICITY": 0.0008649, "INCLINATION": 3.1139, "RA_OF_ASC_NODE": 80.8223, "ARG_OF_PERICENTER": 171.9228, "MEAN_ANOMALY": 174.017, "EPHEMERIS_TYPE": 0, "CLASSIFICATION_TYPE": "U", "NORAD_CAT_ID": 32253, "ELEMENT_SET_NO": 999, "REV_AT_EPOCH": 6673, "BSTAR": 0, "MEAN_MOTION_DOT": -2.16e-06, "MEAN_MOTION_DDOT": 0}, "tle": {"line1": "1 32253U 07044B   25360.46155795 -.00000216  00000+0  00000+0 0  9996", "line2": "2 32253   3.1139  80.8223 0008649 171.9228 174.0170  0.99053021 66735"}}, "geometry": {"type": "Point", "coordinates": [-68.95195732071812, -1.5884238316259416]}}, {"type": "Feature", "properties": {"norad_id": 32388, "name": "HORIZONS-2", "group": "intelsat", "lat": -1.0065072843223333, "lon": 54.626633922023686, "alt_km": 35801.4496723206, "timestamp": "2025-12-27T02:10:15.855596+00:00", "meta": {"OBJECT_NAME": "HORIZONS-2", "OBJECT_ID": "2007-063B", "EPOCH": "2025-12-26T11:37:39.127296", "MEAN_MOTION": 1.00268933, "ECCENTRICITY": 0.0004863, "INCLINATION": 2.1553, "RA_OF_ASC_NODE": 82.8098, "ARG_OF_PERICENTER": 197.5129, "MEAN_ANOMALY": 275.5091, "EPHEMERIS_TYPE": 0, "CLASSIFICATION_TYPE": "U", "NORAD_CAT_ID": 32388, "ELEMENT_SET_NO": 999, "REV_AT_EPOCH": 6608, "BSTAR": 0, "MEAN_MOTION_DOT": -2.32e-06, "MEAN_MOTION_DDOT": 0}, "tle": {"line1": "1 32388U 07063B   25360.48448064 -.00000232  00000+0  00000+0 0  9990", "line2": "2 32388   2.1553  82.8098 0004863 197.5129 275.5091  1.00268933 66083"}}, "geometry": {"type": "Point", "coordinates": [54.626633922023686, -1.0065072843223333]}}, {"type": "Feature", "properties": {"norad_id": 32729, "name": "DIRECTV 11", "group": "intelsat", "lat": 0.006884484247182189, "lon": 29.09819120871372, "alt_km": 35793.708544276364, "timestamp": "2025-12-27T02:10:15.855608+00:00", "meta": {"OBJECT_NAME": "DIRECTV 11", "OBJECT_ID": "2008-013A", "EPOCH": "2025-12-24T22:53:59.758368", "MEAN_MOTION": 1.00260442, "ECCENTRICITY": 0.0001047, "INCLINATION": 0.0475, "RA_OF_ASC_NODE": 199.7105, "ARG_OF_PERICENTER": 11.4593, "MEAN_ANOMALY": 126.8496, "EPHEMERIS_TYPE": 0, "CLASSIFICATION_TYPE": "U", "NORAD_CAT_ID": 32729, "ELEMENT_SET_NO": 999, "REV_AT_EPOCH": 4384, "BSTAR": 0, "MEAN_MOTION_DOT": -1.03e-06, "MEAN_MOTION_DDOT": 0}, "tle": {"line1": "1 32729U 08013A   25358.95416387 -.00000103  00000+0  00000+0 0  9994", "line2": "2 32729   0.0475 199.7105 0001047  11.4593 126.8496  1.00260442 43842"}}, "geometry": {"type": "Point", "coordinates": [29.09819120871372, 0.006884484247182189]}}, {"type": "Feature", "properties": {"norad_id": 32951, "name": "GALAXY 18 (G-18)", "group": "intelsat", "lat": 0.00011530320727117175, "lon": 5.41272150657712, "alt_km": 35784.16372613619, "timestamp": "2025-12-27T02:10:15.855620+00:00", "meta": {"OBJECT_NAME": "GALAXY 18 (G-18)", "OBJECT_ID": "2008-024A", "EPOCH": "2025-12-26T15:52:21.832320", "MEAN_MOTION": 1.00271115, "ECCENTRICITY": 0.0003324, "INCLINATION": 0.0187, "RA_OF_ASC_NODE": 3.7589, "ARG_OF_PERICENTER": 280.2068, "MEAN_ANOMALY": 286.5194, "EPHEMERIS_TYPE": 0, "CLASSIFICATION_TYPE": "U", "NORAD_CAT_ID": 32951, "ELEMENT_SET_NO": 999, "REV_AT_EPOCH": 4412, "BSTAR": 0, "MEAN_MOTION_DOT": 0, "MEAN_MOTION_DDOT": 0}, "tle": {"line1": "1 32951U 08024A   25360.66136380  .00000000  00000+0  00000+0 0  9991", "line2": "2 32951   0.0187   3.7589 0003324 280.2068 286.5194  1.00271115 44122"}}, "geometry": {"type": "Point", "coordinates": [5.41272150657712, 0.00011530320727117175]}}]}